[{"OBJECT_NAME":"STARLINK-35387","OBJECT_ID":"2025-224AD","EPOCH":"2026-03-09T23:24:46.997280","MEAN_MOTION":15.30207114,"ECCENTRICITY":0.00010117,"INCLINATION":53.1607,"RA_OF_ASC_NODE":10.3269,"ARG_OF_PERICENTER":99.2822,"MEAN_ANOMALY":260.8294,"EPHEMERIS_TYPE":0,"CLASSIFICATION_TYPE":"U","NORAD_CAT_ID":65909,"ELEMENT_SET_NO":999,"REV_AT_EPOCH":2486,"BSTAR":0.0010077245,"MEAN_MOTION_DOT":0.00029612,"MEAN_MOTION_DDOT":0},{"OBJECT_NAME":"TRANSPORTER-1 OBJECT M","OBJECT_ID":"2021-006M","EPOCH":"2026-03-09T22:05:37.843296","MEAN_MOTION":15.3227845,"ECCENTRICITY":0.00102759,"INCLINATION":97.2377,"RA_OF_ASC_NODE":116.7915,"ARG_OF_PERICENTER":187.5492,"MEAN_ANOMALY":172.5597,"EPHEMERIS_TYPE":0,"CLASSIFICATION_TYPE":"U","NORAD_CAT_ID":47424,"ELEMENT_SET_NO":999,"REV_AT_EPOCH":28439,"BSTAR":0.00023985652,"MEAN_MOTION_DOT":7.411e-5,"MEAN_MOTION_DDOT":0}]
